MALLIGYONG-1            
1 58400U 23179A   24022.89308305  .00007797  00000+0  34270-3 0  9993
2 58400  97.4249 271.8539 0017487  62.3273 297.9736 15.22038379  9472
